OBJECT_NAME,OBJECT_ID,EPOCH,MEAN_MOTION,ECCENTRICITY,INCLINATION,RA_OF_ASC_NODE,ARG_OF_PERICENTER,MEAN_ANOMALY,EPHEMERIS_TYPE,CLASSIFICATION_TYPE,NORAD_CAT_ID,ELEMENT_SET_NO,REV_AT_EPOCH,BSTAR,MEAN_MOTION_DOT,MEAN_MOTION_DDOT
LEMUR-1,2014-033AL,2026-07-18T05:10:29.131680,14.85341695,.00474851,97.7913,348.3393,337.9146,22.0022,0,U,40044,999,65007,.86804628E-4,.705E-5,0
LEMUR-2-GREENBERG,2017-042N,2026-07-18T01:13:36.647040,15.32207983,.00073229,97.3835,19.5561,247.3182,112.7286,0,U,42837,999,49311,.31415728E-3,.9701E-4,0
LEMUR-2-ANDIS,2017-042P,2026-07-18T01:43:45.666912,15.35996922,.00073243,97.3688,19.8725,246.3680,113.6795,0,U,42838,999,49319,.35542868E-3,.12392E-3,0
LEMUR-2-MONSON,2017-042Q,2026-07-18T10:54:59.046048,15.28804140,.00055178,97.4097,19.8815,231.1425,128.9323,0,U,42839,999,49294,.28173185E-3,.7815E-4,0
LEMUR-2-FURIAUS,2017-042R,2026-07-18T10:59:35.649600,15.31195052,.00056947,97.3785,17.8461,315.3320,44.7462,0,U,42840,999,49299,.31588602E-3,.9448E-4,0
LEMUR-2-PETERG,2017-042S,2026-07-18T11:10:38.369568,15.35102108,.0003533,97.3999,24.5762,206.3446,153.7618,0,U,42841,999,49323,.32368787E-3,.10951E-3,0
LEMUR-2-DEMBITZ,2017-042T,2026-07-18T11:28:05.888352,15.31170144,.00051174,97.3835,20.9121,259.1431,100.9234,0,U,42842,999,49313,.29104692E-3,.869E-4,0
LEMUR-2-ZACHARY,2017-042W,2026-07-18T14:18:58.400928,15.52927693,.00027745,97.3575,31.9615,229.3024,130.7988,0,U,42845,999,49407,.46203706E-3,.28701E-3,0
LEMUR-2-AMANDA-SVANTE,2021-034B,2026-07-18T04:29:06.754272,15.36074295,.00047014,97.5745,278.3300,135.7113,224.4507,0,U,48269,999,28581,.52025878E-3,.18224E-3,0
LEMUR-2-SPECIAL-K,2021-034F,2026-07-18T04:36:33.362784,15.75793092,.00061284,97.5639,288.5518,212.7149,147.3737,0,U,48273,999,28655,.11690989E-2,.18292E-2,0
LEMUR-2-EMBRIONOVIS,2023-084AQ,2026-07-18T08:49:09.214464,15.38280908,.00086233,97.6330,344.7873,194.3541,165.7459,0,U,56970,999,17247,.20725762E-3,.7739E-4,0
LEMUR-2-DEVERILL-M-T,2023-100F,2026-07-18T02:06:11.423808,15.41179399,.00047265,99.4447,246.8076,284.7623,75.3093,0,U,57391,999,16600,.34880268E-3,.14362E-3,0
LEMUR-2-BASS,2023-174D,2026-07-18T04:43:34.674240,15.44055518,.00074748,97.3841,284.3636,69.1079,291.0969,0,U,58259,999,15014,.21531383E-3,.9752E-4,0
LEMUR-2-JK0903EM1407,2023-174CJ,2026-07-18T05:04:35.759136,15.53168968,.00033225,97.3921,290.5908,21.8245,338.3149,0,U,58336,999,15054,.24910332E-3,.15539E-3,0
LEMUR-2-MJR092620,2023-174CN,2026-07-18T11:55:51.809088,15.45935972,.00049953,97.3969,290.1274,18.6381,341.5050,0,U,58340,999,15048,.22219812E-3,.1073E-3,0
LEMUR-2-NIMBUS2000,2024-022A,2026-07-18T12:21:30.081600,15.41201168,.00083995,97.4079,49.9321,17.2080,342.9450,0,U,58899,999,13709,.29459354E-3,.12161E-3,0
LEMUR-2-VALHALLA,2024-022B,2026-07-18T12:30:28.927296,15.40549223,.00088516,97.4077,49.9050,12.7275,347.4193,0,U,58900,999,13709,.21720949E-3,.8749E-4,0
LEMUR-2-CAEL,2024-022E,2026-07-18T02:44:47.634144,15.41915567,.00067853,97.4058,50.4848,358.7316,1.3912,0,U,58903,999,13710,.23069587E-3,.9726E-4,0
LEMUR-2-JOHNNYTRUONG,2024-043BA,2026-07-18T10:04:22.374624,15.62736070,.00039055,97.5402,353.1172,84.4975,275.6728,0,U,59146,999,13291,.28870522E-3,.25833E-3,0
LEMUR-2-TOMATOKECHUP,2024-149D,2026-07-18T04:12:15.990912,15.36619049,.0003402,97.3790,281.3129,116.6950,243.4643,0,U,60471,999,10692,.16424172E-3,.579E-4,0
LEMUR-2-STELLA,2024-149BT,2026-07-18T04:24:03.188736,15.12405631,.00012337,97.6730,281.7865,123.5601,236.5747,0,U,60533,999,10518,.35130774E-3,.6034E-4,0
LEMUR-2-MARHISYAM,2024-149BW,2026-07-18T05:47:57.861024,15.11811185,.0002278,97.6875,282.3247,64.4812,295.6653,0,U,60536,999,10517,.32242311E-3,.5441E-4,0
LEMUR-2-AHMED-ASRAR,2024-149DN,2026-07-18T04:17:41.196192,15.13344566,.00014726,97.7001,284.4767,192.2142,167.9053,0,U,60576,999,10525,.35425104E-3,.6248E-4,0
LEMUR-2-LLOYD,2024-149DP,2026-07-18T11:05:58.235712,15.09781760,.00044294,97.6735,280.6193,63.7505,296.4179,0,U,60577,999,10511,.27523235E-3,.4381E-4,0
LEMUR-2-SQUIRRELCOMM,2024-149DQ,2026-07-18T04:34:26.484384,15.07461540,.00040248,97.6701,280.0096,313.0050,47.0840,0,U,60578,999,10507,.17513663E-3,.2592E-4,0
LEMUR-2-SIERRINI,2024-149DR,2026-07-18T11:16:18.521184,15.11549182,.00062488,97.6832,282.2124,82.5498,277.6441,0,U,60579,999,10518,.30362965E-3,.5084E-4,0
LEMUR-2-WILSON,2025-009CP,2026-07-18T05:06:59.203872,14.95281818,.00017796,97.7017,277.1340,306.9573,53.1485,0,U,62694,999,8199,.90095148E-4,.935E-5,0
LEMUR-2-STAR-FOX,2025-009CR,2026-07-18T10:56:33.347328,15.02864375,.00018577,97.6898,280.8397,29.7809,330.3521,0,U,62696,999,8225,.27572028E-3,.3636E-4,0
LEMUR-2-ARIANNA,2025-009CU,2026-07-18T04:30:50.017824,15.02865359,.00021967,97.6842,280.3241,39.3641,320.7744,0,U,62699,999,8221,.28793444E-3,.38E-4,0
LEMUR-2-ALISIA,2025-009DB,2026-07-18T05:25:56.660736,15.03200197,.00046674,97.6964,281.1931,120.5881,239.5805,0,U,62706,999,10482,.28688448E-3,.382E-4,0
