LEMUR-1                 
1 40044U 14033AL  26199.21561495  .00000705  00000+0  86805-4 0  9995
2 40044  97.7913 348.3393 0047485 337.9146  22.0022 14.85341695650076
LEMUR-2-GREENBERG       
1 42837U 17042N   26199.05111860  .00009701  00000+0  31416-3 0  9991
2 42837  97.3835  19.5561 0007322 247.3182 112.7286 15.32207983493114
LEMUR-2-ANDIS           
1 42838U 17042P   26199.07205633  .00012392  00000+0  35543-3 0  9991
2 42838  97.3688  19.8725 0007324 246.3680 113.6795 15.35996922493194
LEMUR-2-MONSON          
1 42839U 17042Q   26199.45485007  .00007815  00000+0  28173-3 0  9994
2 42839  97.4097  19.8815 0005517 231.1425 128.9323 15.28804140492941
LEMUR-2-FURIAUS         
1 42840U 17042R   26199.45805150  .00009448  00000+0  31589-3 0  9990
2 42840  97.3785  17.8461 0005694 315.3320  44.7462 15.31195052492999
LEMUR-2-PETERG          
1 42841U 17042S   26199.46572187  .00010951  00000+0  32369-3 0  9991
2 42841  97.3999  24.5762 0003533 206.3446 153.7618 15.35102108493230
LEMUR-2-DEMBITZ         
1 42842U 17042T   26199.47784593  .00008690  00000+0  29105-3 0  9990
2 42842  97.3835  20.9121 0005117 259.1431 100.9234 15.31170144493137
LEMUR-2-ZACHARY         
1 42845U 17042W   26199.59650927  .00028701  00000+0  46204-3 0  9993
2 42845  97.3575  31.9615 0002774 229.3024 130.7988 15.52927693494077
LEMUR-2-AMANDA-SVANTE   
1 48269U 21034B   26199.18688373  .00018224  00000+0  52026-3 0  9994
2 48269  97.5745 278.3300 0004701 135.7113 224.4507 15.36074295285814
LEMUR-2-SPECIAL-K       
1 48273U 21034F   26199.19205281  .00182920  00000+0  11691-2 0  9990
2 48273  97.5639 288.5518 0006128 212.7149 147.3737 15.75793092286551
LEMUR-2-EMBRIONOVIS     
1 56970U 23084AQ  26199.36746776  .00007739  00000+0  20726-3 0  9992
2 56970  97.6330 344.7873 0008623 194.3541 165.7459 15.38280908172471
LEMUR-2-DEVERILL-M-T    
1 57391U 23100F   26199.08763222  .00014362  00000+0  34880-3 0  9999
2 57391  99.4447 246.8076 0004726 284.7623  75.3093 15.41179399166007
LEMUR-2-BASS            
1 58259U 23174D   26199.19692910  .00009752  00000+0  21531-3 0  9997
2 58259  97.3841 284.3636 0007474  69.1079 291.0969 15.44055518150144
LEMUR-2-JK0903EM1407    
1 58336U 23174CJ  26199.21152499  .00015539  00000+0  24910-3 0  9993
2 58336  97.3921 290.5908 0003322  21.8245 338.3149 15.53168968150541
LEMUR-2-MJR092620       
1 58340U 23174CN  26199.49712742  .00010730  00000+0  22220-3 0  9991
2 58340  97.3969 290.1274 0004995  18.6381 341.5050 15.45935972150480
LEMUR-2-NIMBUS2000      
1 58899U 24022A   26199.51493150  .00012161  00000+0  29459-3 0  9996
2 58899  97.4079  49.9321 0008399  17.2080 342.9450 15.41201168137098
LEMUR-2-VALHALLA        
1 58900U 24022B   26199.52116814  .00008749  00000+0  21721-3 0  9990
2 58900  97.4077  49.9050 0008851  12.7275 347.4193 15.40549223137097
LEMUR-2-CAEL            
1 58903U 24022E   26199.11444021  .00009726  00000+0  23070-3 0  9997
2 58903  97.4058  50.4848 0006785 358.7316   1.3912 15.41915567137100
LEMUR-2-JOHNNYTRUONG    
1 59146U 24043BA  26199.41970341  .00025833  00000+0  28871-3 0  9993
2 59146  97.5402 353.1172 0003905  84.4975 275.6728 15.62736070132910
LEMUR-2-TOMATOKECHUP    
1 60471U 24149D   26199.17518508  .00005790  00000+0  16424-3 0  9990
2 60471  97.3790 281.3129 0003402 116.6950 243.4643 15.36619049106926
LEMUR-2-STELLA          
1 60533U 24149BT  26199.18337024  .00006034  00000+0  35131-3 0  9990
2 60533  97.6730 281.7865 0001233 123.5601 236.5747 15.12405631105182
LEMUR-2-MARHISYAM       
1 60536U 24149BW  26199.24164191  .00005441  00000+0  32242-3 0  9994
2 60536  97.6875 282.3247 0002278  64.4812 295.6653 15.11811185105178
LEMUR-2-AHMED-ASRAR     
1 60576U 24149DN  26199.17894903  .00006248  00000+0  35425-3 0  9993
2 60576  97.7001 284.4767 0001472 192.2142 167.9053 15.13344566105255
LEMUR-2-LLOYD           
1 60577U 24149DP  26199.46247958  .00004381  00000+0  27523-3 0  9994
2 60577  97.6735 280.6193 0004429  63.7505 296.4179 15.09781760105118
LEMUR-2-SQUIRRELCOMM    
1 60578U 24149DQ  26199.19058431  .00002592  00000+0  17514-3 0  9992
2 60578  97.6701 280.0096 0004024 313.0050  47.0840 15.07461540105074
LEMUR-2-SIERRINI        
1 60579U 24149DR  26199.46965881  .00005084  00000+0  30363-3 0  9995
2 60579  97.6832 282.2124 0006248  82.5498 277.6441 15.11549182105184
LEMUR-2-WILSON          
1 62694U 25009CP  26199.21318523  .00000935  00000+0  90095-4 0  9998
2 62694  97.7017 277.1340 0001779 306.9573  53.1485 14.95281818 81991
LEMUR-2-STAR-FOX        
1 62696U 25009CR  26199.45594152  .00003636  00000+0  27572-3 0  9990
2 62696  97.6898 280.8397 0001857  29.7809 330.3521 15.02864375 82256
LEMUR-2-ARIANNA         
1 62699U 25009CU  26199.18807891  .00003800  00000+0  28793-3 0  9999
2 62699  97.6842 280.3241 0002196  39.3641 320.7744 15.02865359 82218
LEMUR-2-ALISIA          
1 62706U 25009DB  26199.22635024  .00003820  00000+0  28688-3 0  9995
2 62706  97.6964 281.1931 0004667 120.5881 239.5805 15.03200197104822
